[{"OBJECT_NAME":"STARLINK-36335","OBJECT_ID":"2026-040A","EPOCH":"2026-03-09T22:00:01.999584","MEAN_MOTION":16.04916859,"ECCENTRICITY":0.00010058,"INCLINATION":97.2779,"RA_OF_ASC_NODE":17.1104,"ARG_OF_PERICENTER":104.629,"MEAN_ANOMALY":244.1763,"EPHEMERIS_TYPE":0,"CLASSIFICATION_TYPE":"U","NORAD_CAT_ID":68015,"ELEMENT_SET_NO":999,"REV_AT_EPOCH":241,"BSTAR":-0.0017098192,"MEAN_MOTION_DOT":-0.01149249,"MEAN_MOTION_DDOT":0.00044892206},{"OBJECT_NAME":"OBJECT R","OBJECT_ID":"2026-042R","EPOCH":"2026-03-09T18:00:02.000160","MEAN_MOTION":16.02612364,"ECCENTRICITY":8.392e-5,"INCLINATION":53.1604,"RA_OF_ASC_NODE":194.9801,"ARG_OF_PERICENTER":52.9907,"MEAN_ANOMALY":9.4935,"EPHEMERIS_TYPE":0,"CLASSIFICATION_TYPE":"U","NORAD_CAT_ID":68084,"ELEMENT_SET_NO":999,"REV_AT_EPOCH":206,"BSTAR":-0.0020913136,"MEAN_MOTION_DOT":-0.01276737,"MEAN_MOTION_DDOT":0.00053259454}]
