STARLINK-36335          
1 68015U 26040A   26068.91668981 -.01149249  44892-3 -17098-2 0  9991
2 68015  97.2779  17.1104 0001005 104.6290 244.1763 16.04916859  2418
STARLINK-37037          
1 68084U 26042R   26068.75002315 -.01276737  53259-3 -20913-2 0  9994
2 68084  53.1604 194.9801 0000839  52.9907   9.4935 16.02612364  2060
